[{"OBJECT_NAME":"ONEWEB-0205","OBJECT_ID":"2021-031S","EPOCH":"2026-05-30T22:26:36.430368","MEAN_MOTION":13.14503684,"ECCENTRICITY":0.0001773,"INCLINATION":87.8956,"RA_OF_ASC_NODE":293.1354,"ARG_OF_PERICENTER":104.3726,"MEAN_ANOMALY":255.76,"EPHEMERIS_TYPE":0,"CLASSIFICATION_TYPE":"U","NORAD_CAT_ID":48226,"ELEMENT_SET_NO":999,"REV_AT_EPOCH":24600,"BSTAR":0.00011728,"MEAN_MOTION_DOT":5.6e-07,"MEAN_MOTION_DDOT":0.0},{"OBJECT_NAME":"ONEWEB-0206","OBJECT_ID":"2021-031T","EPOCH":"2026-05-30T19:58:10.739136","MEAN_MOTION":13.14502871,"ECCENTRICITY":0.0001859,"INCLINATION":87.895,"RA_OF_ASC_NODE":293.158,"ARG_OF_PERICENTER":93.3262,"MEAN_ANOMALY":266.8081,"EPHEMERIS_TYPE":0,"CLASSIFICATION_TYPE":"U","NORAD_CAT_ID":48227,"ELEMENT_SET_NO":999,"REV_AT_EPOCH":24594,"BSTAR":0.00022468,"MEAN_MOTION_DOT":9.6e-07,"MEAN_MOTION_DDOT":0.0},{"OBJECT_NAME":"ONEWEB-0182","OBJECT_ID":"2021-031U","EPOCH":"2026-05-30T19:51:18.786528","MEAN_MOTION":13.1450199,"ECCENTRICITY":0.0002072,"INCLINATION":87.8947,"RA_OF_ASC_NODE":293.1673,"ARG_OF_PERICENTER":99.022,"MEAN_ANOMALY":261.1144,"EPHEMERIS_TYPE":0,"CLASSIFICATION_TYPE":"U","NORAD_CAT_ID":48228,"ELEMENT_SET_NO":999,"REV_AT_EPOCH":24615,"BSTAR":2.6445000000000002e-05,"MEAN_MOTION_DOT":2.3e-07,"MEAN_MOTION_DDOT":0.0},{"OBJECT_NAME":"ONEWEB-0186","OBJECT_ID":"2021-031V","EPOCH":"2026-05-30T21:56:54.324096","MEAN_MOTION":13.14501598,"ECCENTRICITY":0.0001845,"INCLINATION":87.8954,"RA_OF_ASC_NODE":293.139,"ARG_OF_PERICENTER":102.3091,"MEAN_ANOMALY":257.8246,"EPHEMERIS_TYPE":0,"CLASSIFICATION_TYPE":"U","NORAD_CAT_ID":48229,"ELEMENT_SET_NO":999,"REV_AT_EPOCH":24611,"BSTAR":0.000482,"MEAN_MOTION_DOT":1.91e-06,"MEAN_MOTION_DDOT":0.0},{"OBJECT_NAME":"ONEWEB-0181","OBJECT_ID":"2021-031W","EPOCH":"2026-05-30T21:24:56.885184","MEAN_MOTION":13.14502559,"ECCENTRICITY":0.0001764,"INCLINATION":87.8939,"RA_OF_ASC_NODE":293.1757,"ARG_OF_PERICENTER":104.8882,"MEAN_ANOMALY":255.2443,"EPHEMERIS_TYPE":0,"CLASSIFICATION_TYPE":"U","NORAD_CAT_ID":48230,"ELEMENT_SET_NO":999,"REV_AT_EPOCH":24596,"BSTAR":-0.00047597000000000004,"MEAN_MOTION_DOT":-1.64e-06,"MEAN_MOTION_DDOT":0.0},{"OBJECT_NAME":"ONEWEB-0188","OBJECT_ID":"2021-031X","EPOCH":"2026-05-30T22:19:45.801408","MEAN_MOTION":13.14502232,"ECCENTRICITY":0.0001853,"INCLINATION":87.8942,"RA_OF_ASC_NODE":293.167,"ARG_OF_PERICENTER":99.9232,"MEAN_ANOMALY":260.2107,"EPHEMERIS_TYPE":0,"CLASSIFICATION_TYPE":"U","NORAD_CAT_ID":48231,"ELEMENT_SET_NO":999,"REV_AT_EPOCH":24587,"BSTAR":0.00043342000000000006,"MEAN_MOTION_DOT":1.73e-06,"MEAN_MOTION_DDOT":0.0},{"OBJECT_NAME":"ONEWEB-0220","OBJECT_ID":"2021-031Y","EPOCH":"2026-05-30T21:27:13.631328","MEAN_MOTION":13.14502407,"ECCENTRICITY":0.0001953,"INCLINATION":87.8955,"RA_OF_ASC_NODE":293.1446,"ARG_OF_PERICENTER":104.4845,"MEAN_ANOMALY":255.6501,"EPHEMERIS_TYPE":0,"CLASSIFICATION_TYPE":"U","NORAD_CAT_ID":48232,"ELEMENT_SET_NO":999,"REV_AT_EPOCH":24613,"BSTAR":-0.00043545,"MEAN_MOTION_DOT":-1.49e-06,"MEAN_MOTION_DDOT":0.0},{"OBJECT_NAME":"ONEWEB-0165","OBJECT_ID":"2021-031Z","EPOCH":"2026-05-30T22:08:20.132736","MEAN_MOTION":13.14501973,"ECCENTRICITY":0.0001587,"INCLINATION":87.895,"RA_OF_ASC_NODE":293.1528,"ARG_OF_PERICENTER":108.2686,"MEAN_ANOMALY":251.8616,"EPHEMERIS_TYPE":0,"CLASSIFICATION_TYPE":"U","NORAD_CAT_ID":48233,"ELEMENT_SET_NO":999,"REV_AT_EPOCH":24609,"BSTAR":0.00053202,"MEAN_MOTION_DOT":2.1e-06,"MEAN_MOTION_DDOT":0.0},{"OBJECT_NAME":"ONEWEB-0199","OBJECT_ID":"2021-031AA","EPOCH":"2026-05-30T21:45:29.923776","MEAN_MOTION":13.14502179,"ECCENTRICITY":0.0001909,"INCLINATION":87.8955,"RA_OF_ASC_NODE":293.1412,"ARG_OF_PERICENTER":93.5218,"MEAN_ANOMALY":266.613,"EPHEMERIS_TYPE":0,"CLASSIFICATION_TYPE":"U","NORAD_CAT_ID":48234,"ELEMENT_SET_NO":999,"REV_AT_EPOCH":24599,"BSTAR":5.998400000000001e-05,"MEAN_MOTION_DOT":3.5e-07,"MEAN_MOTION_DDOT":0.0},{"OBJECT_NAME":"ONEWEB-0203","OBJECT_ID":"2021-031AB","EPOCH":"2026-05-30T21:31:47.337024","MEAN_MOTION":13.14501339,"ECCENTRICITY":0.0001686,"INCLINATION":87.8953,"RA_OF_ASC_NODE":293.1468,"ARG_OF_PERICENTER":96.7285,"MEAN_ANOMALY":263.4037,"EPHEMERIS_TYPE":0,"CLASSIFICATION_TYPE":"U","NORAD_CAT_ID":48235,"ELEMENT_SET_NO":999,"REV_AT_EPOCH":24600,"BSTAR":-0.00031517000000000003,"MEAN_MOTION_DOT":-1.04e-06,"MEAN_MOTION_DDOT":0.0},{"OBJECT_NAME":"ONEWEB-0197","OBJECT_ID":"2021-031AC","EPOCH":"2026-05-30T22:44:40.771104","MEAN_MOTION":13.14502812,"ECCENTRICITY":0.0002128,"INCLINATION":87.8945,"RA_OF_ASC_NODE":293.124,"ARG_OF_PERICENTER":101.9494,"MEAN_ANOMALY":258.1874,"EPHEMERIS_TYPE":0,"CLASSIFICATION_TYPE":"U","NORAD_CAT_ID":48236,"ELEMENT_SET_NO":999,"REV_AT_EPOCH":24592,"BSTAR":-0.00046162,"MEAN_MOTION_DOT":-1.58e-06,"MEAN_MOTION_DDOT":0.0},{"OBJECT_NAME":"ONEWEB-0194","OBJECT_ID":"2021-031AD","EPOCH":"2026-05-30T22:15:10.552608","MEAN_MOTION":13.14500898,"ECCENTRICITY":0.000175,"INCLINATION":87.8949,"RA_OF_ASC_NODE":293.1495,"ARG_OF_PERICENTER":92.502,"MEAN_ANOMALY":267.631,"EPHEMERIS_TYPE":0,"CLASSIFICATION_TYPE":"U","NORAD_CAT_ID":48237,"ELEMENT_SET_NO":999,"REV_AT_EPOCH":24609,"BSTAR":0.00044028000000000003,"MEAN_MOTION_DOT":1.76e-06,"MEAN_MOTION_DDOT":0.0},{"OBJECT_NAME":"ONEWEB-0193","OBJECT_ID":"2021-031AE","EPOCH":"2026-05-30T20:48:24.011712","MEAN_MOTION":13.14501059,"ECCENTRICITY":0.000176,"INCLINATION":87.895,"RA_OF_ASC_NODE":293.1524,"ARG_OF_PERICENTER":83.0325,"MEAN_ANOMALY":277.1004,"EPHEMERIS_TYPE":0,"CLASSIFICATION_TYPE":"U","NORAD_CAT_ID":48238,"ELEMENT_SET_NO":999,"REV_AT_EPOCH":24603,"BSTAR":-0.00024808,"MEAN_MOTION_DOT":-7.9e-07,"MEAN_MOTION_DDOT":0.0},{"OBJECT_NAME":"ONEWEB-0191","OBJECT_ID":"2021-031AF","EPOCH":"2026-05-30T22:53:59.976096","MEAN_MOTION":13.14501582,"ECCENTRICITY":0.0002024,"INCLINATION":87.8952,"RA_OF_ASC_NODE":293.132,"ARG_OF_PERICENTER":97.5457,"MEAN_ANOMALY":262.5902,"EPHEMERIS_TYPE":0,"CLASSIFICATION_TYPE":"U","NORAD_CAT_ID":48239,"ELEMENT_SET_NO":999,"REV_AT_EPOCH":24590,"BSTAR":-0.00044547,"MEAN_MOTION_DOT":-1.52e-06,"MEAN_MOTION_DDOT":0.0},{"OBJECT_NAME":"ONEWEB-0195","OBJECT_ID":"2021-031AG","EPOCH":"2026-05-30T20:31:15.399840","MEAN_MOTION":13.14504697,"ECCENTRICITY":0.0001607,"INCLINATION":87.8957,"RA_OF_ASC_NODE":293.1534,"ARG_OF_PERICENTER":110.0979,"MEAN_ANOMALY":250.0324,"EPHEMERIS_TYPE":0,"CLASSIFICATION_TYPE":"U","NORAD_CAT_ID":48240,"ELEMENT_SET_NO":999,"REV_AT_EPOCH":24587,"BSTAR":0.00042075,"MEAN_MOTION_DOT":1.69e-06,"MEAN_MOTION_DDOT":0.0},{"OBJECT_NAME":"ONEWEB-0201","OBJECT_ID":"2021-031AH","EPOCH":"2026-05-30T22:03:58.250016","MEAN_MOTION":13.14503461,"ECCENTRICITY":0.0002126,"INCLINATION":87.8947,"RA_OF_ASC_NODE":293.1571,"ARG_OF_PERICENTER":103.6885,"MEAN_ANOMALY":256.4482,"EPHEMERIS_TYPE":0,"CLASSIFICATION_TYPE":"U","NORAD_CAT_ID":48241,"ELEMENT_SET_NO":999,"REV_AT_EPOCH":24611,"BSTAR":0.00035694,"MEAN_MOTION_DOT":1.45e-06,"MEAN_MOTION_DDOT":0.0}]