ONEWEB-0205             
1 48226U 21031S   26150.93514387  .00000056  00000+0  11728-3 0  9995
2 48226  87.8956 293.1354 0001773 104.3726 255.7600 13.14503684246007
ONEWEB-0206             
1 48227U 21031T   26150.83206874  .00000096  00000+0  22468-3 0  9991
2 48227  87.8950 293.1580 0001859  93.3262 266.8081 13.14502871245945
ONEWEB-0182             
1 48228U 21031U   26150.82730077  .00000023  00000+0  26445-4 0  9998
2 48228  87.8947 293.1673 0002072  99.0220 261.1144 13.14501990246153
ONEWEB-0186             
1 48229U 21031V   26150.91451764  .00000191  00000+0  48200-3 0  9990
2 48229  87.8954 293.1390 0001845 102.3091 257.8246 13.14501598246114
ONEWEB-0181             
1 48230U 21031W   26150.89232506 -.00000164  00000+0 -47597-3 0  9990
2 48230  87.8939 293.1757 0001764 104.8882 255.2443 13.14502559245962
ONEWEB-0188             
1 48231U 21031X   26150.93039122  .00000173  00000+0  43342-3 0  9997
2 48231  87.8942 293.1670 0001853  99.9232 260.2107 13.14502232245874
ONEWEB-0220             
1 48232U 21031Y   26150.89390777 -.00000149  00000+0 -43545-3 0  9999
2 48232  87.8955 293.1446 0001953 104.4845 255.6501 13.14502407246133
ONEWEB-0165             
1 48233U 21031Z   26150.92245524  .00000210  00000+0  53202-3 0  9991
2 48233  87.8950 293.1528 0001587 108.2686 251.8616 13.14501973246095
ONEWEB-0199             
1 48234U 21031AA  26150.90659634  .00000035  00000+0  59984-4 0  9990
2 48234  87.8955 293.1412 0001909  93.5218 266.6130 13.14502179245990
ONEWEB-0203             
1 48235U 21031AB  26150.89707566 -.00000104  00000+0 -31517-3 0  9997
2 48235  87.8953 293.1468 0001686  96.7285 263.4037 13.14501339246002
ONEWEB-0197             
1 48236U 21031AC  26150.94769411 -.00000158  00000+0 -46162-3 0  9992
2 48236  87.8945 293.1240 0002128 101.9494 258.1874 13.14502812245922
ONEWEB-0194             
1 48237U 21031AD  26150.92720547  .00000176  00000+0  44028-3 0  9995
2 48237  87.8949 293.1495 0001750  92.5020 267.6310 13.14500898246090
ONEWEB-0193             
1 48238U 21031AE  26150.86694458 -.00000079  00000+0 -24808-3 0  9998
2 48238  87.8950 293.1524 0001760  83.0325 277.1004 13.14501059246030
ONEWEB-0191             
1 48239U 21031AF  26150.95416639 -.00000152  00000+0 -44547-3 0  9996
2 48239  87.8952 293.1320 0002024  97.5457 262.5902 13.14501582245908
ONEWEB-0195             
1 48240U 21031AG  26150.85503935  .00000169  00000+0  42075-3 0  9993
2 48240  87.8957 293.1534 0001607 110.0979 250.0324 13.14504697245874
ONEWEB-0201             
1 48241U 21031AH  26150.91942419  .00000145  00000+0  35694-3 0  9998
2 48241  87.8947 293.1571 0002126 103.6885 256.4482 13.14503461246117
